CSS (TIANHE)            
1 48274U 21035A   24157.20695298  .00019150  00000+0  22161-3 0  9996
2 48274  41.4664 156.1234 0001568 169.6594 190.4278 15.61388966177227
